CCSDS_OMM_VERS = 2.0
CREATION_DATE  = 
ORIGINATOR     = 

OBJECT_NAME    = ALOS (DAICHI)
OBJECT_ID      = 2006-002A
CENTER_NAME    = EARTH
REF_FRAME      = TEME
TIME_SYSTEM    = UTC
MEAN_ELEMENT_THEORY = SGP/SGP4

EPOCH          = 2025-12-13T07:23:53.175840
MEAN_MOTION    = 14.69491627
ECCENTRICITY   = .00011676
INCLINATION    = 98.1091
RA_OF_ASC_NODE = 298.7916
ARG_OF_PERICENTER = 116.2119
MEAN_ANOMALY   = 243.9207

EPHEMERIS_TYPE = 0
CLASSIFICATION_TYPE = U
NORAD_CAT_ID   = 28931
ELEMENT_SET_NO = 999
REV_AT_EPOCH   = 6079
BSTAR          = .42165006E-3
MEAN_MOTION_DOT = .245E-4
MEAN_MOTION_DDOT = 0

CCSDS_OMM_VERS = 2.0
CREATION_DATE  = 
ORIGINATOR     = 

OBJECT_NAME    = H-2A R/B
OBJECT_ID      = 2006-002B
CENTER_NAME    = EARTH
REF_FRAME      = TEME
TIME_SYSTEM    = UTC
MEAN_ELEMENT_THEORY = SGP/SGP4

EPOCH          = 2025-12-13T07:32:01.611456
MEAN_MOTION    = 15.14592359
ECCENTRICITY   = .00545294
INCLINATION    = 98.2312
RA_OF_ASC_NODE = 122.1091
ARG_OF_PERICENTER = 174.3213
MEAN_ANOMALY   = 185.8648

EPHEMERIS_TYPE = 0
CLASSIFICATION_TYPE = U
NORAD_CAT_ID   = 28932
ELEMENT_SET_NO = 999
REV_AT_EPOCH   = 8135
BSTAR          = .87443066E-3
MEAN_MOTION_DOT = .16698E-3
MEAN_MOTION_DDOT = 0

CCSDS_OMM_VERS = 2.0
CREATION_DATE  = 
ORIGINATOR     = 

OBJECT_NAME    = RESURS-DK 1
OBJECT_ID      = 2006-021A
CENTER_NAME    = EARTH
REF_FRAME      = TEME
TIME_SYSTEM    = UTC
MEAN_ELEMENT_THEORY = SGP/SGP4

EPOCH          = 2025-12-13T07:02:31.809408
MEAN_MOTION    = 15.12166735
ECCENTRICITY   = .00071541
INCLINATION    = 69.9332
RA_OF_ASC_NODE = 100.4076
ARG_OF_PERICENTER = 258.5455
MEAN_ANOMALY   = 101.4907

EPHEMERIS_TYPE = 0
CLASSIFICATION_TYPE = U
NORAD_CAT_ID   = 29228
ELEMENT_SET_NO = 999
REV_AT_EPOCH   = 7446
BSTAR          = .25921392E-3
MEAN_MOTION_DOT = .4378E-4
MEAN_MOTION_DDOT = 0

CCSDS_OMM_VERS = 2.0
CREATION_DATE  = 
ORIGINATOR     = 

OBJECT_NAME    = CZ-4B R/B
OBJECT_ID      = 2006-046C
CENTER_NAME    = EARTH
REF_FRAME      = TEME
TIME_SYSTEM    = UTC
MEAN_ELEMENT_THEORY = SGP/SGP4

EPOCH          = 2025-12-13T02:22:48.383040
MEAN_MOTION    = 15.15878420
ECCENTRICITY   = .00332893
INCLINATION    = 97.5737
RA_OF_ASC_NODE = 27.2363
ARG_OF_PERICENTER = 205.1309
MEAN_ANOMALY   = 154.8305

EPHEMERIS_TYPE = 0
CLASSIFICATION_TYPE = U
NORAD_CAT_ID   = 29507
ELEMENT_SET_NO = 999
REV_AT_EPOCH   = 4692
BSTAR          = .3711822E-3
MEAN_MOTION_DOT = .7136E-4
MEAN_MOTION_DDOT = 0

CCSDS_OMM_VERS = 2.0
CREATION_DATE  = 
ORIGINATOR     = 

OBJECT_NAME    = CZ-2C R/B
OBJECT_ID      = 2007-010B
CENTER_NAME    = EARTH
REF_FRAME      = TEME
TIME_SYSTEM    = UTC
MEAN_ELEMENT_THEORY = SGP/SGP4

EPOCH          = 2025-12-13T06:46:33.191040
MEAN_MOTION    = 14.20210468
ECCENTRICITY   = .0058998
INCLINATION    = 98.3975
RA_OF_ASC_NODE = 99.9059
ARG_OF_PERICENTER = 184.4271
MEAN_ANOMALY   = 175.6393

EPHEMERIS_TYPE = 0
CLASSIFICATION_TYPE = U
NORAD_CAT_ID   = 31114
ELEMENT_SET_NO = 999
REV_AT_EPOCH   = 96745
BSTAR          = .14504268E-3
MEAN_MOTION_DOT = .274E-5
MEAN_MOTION_DDOT = 0

CCSDS_OMM_VERS = 2.0
CREATION_DATE  = 
ORIGINATOR     = 

OBJECT_NAME    = COSMO-SKYMED 1
OBJECT_ID      = 2007-023A
CENTER_NAME    = EARTH
REF_FRAME      = TEME
TIME_SYSTEM    = UTC
MEAN_ELEMENT_THEORY = SGP/SGP4

EPOCH          = 2025-12-13T07:45:38.061216
MEAN_MOTION    = 14.95772291
ECCENTRICITY   = .00012687
INCLINATION    = 97.8834
RA_OF_ASC_NODE = 172.7261
ARG_OF_PERICENTER = 89.6071
MEAN_ANOMALY   = 270.5295

EPHEMERIS_TYPE = 0
CLASSIFICATION_TYPE = U
NORAD_CAT_ID   = 31598
ELEMENT_SET_NO = 999
REV_AT_EPOCH   = 199
BSTAR          = .55937833E-3
MEAN_MOTION_DOT = .6181E-4
MEAN_MOTION_DDOT = 0

CCSDS_OMM_VERS = 2.0
CREATION_DATE  = 
ORIGINATOR     = 

OBJECT_NAME    = COSMOS 2428
OBJECT_ID      = 2007-029A
CENTER_NAME    = EARTH
REF_FRAME      = TEME
TIME_SYSTEM    = UTC
MEAN_ELEMENT_THEORY = SGP/SGP4

EPOCH          = 2025-12-13T07:18:50.578848
MEAN_MOTION    = 14.12890012
ECCENTRICITY   = .00036972
INCLINATION    = 70.9368
RA_OF_ASC_NODE = 24.6938
ARG_OF_PERICENTER = 22.6373
MEAN_ANOMALY   = 337.4911

EPHEMERIS_TYPE = 0
CLASSIFICATION_TYPE = U
NORAD_CAT_ID   = 31792
ELEMENT_SET_NO = 999
REV_AT_EPOCH   = 95189
BSTAR          = .97858158E-4
MEAN_MOTION_DOT = .134E-5
MEAN_MOTION_DDOT = 0

CCSDS_OMM_VERS = 2.0
CREATION_DATE  = 
ORIGINATOR     = 

OBJECT_NAME    = SL-16 R/B
OBJECT_ID      = 2007-029B
CENTER_NAME    = EARTH
REF_FRAME      = TEME
TIME_SYSTEM    = UTC
MEAN_ELEMENT_THEORY = SGP/SGP4

EPOCH          = 2025-12-13T07:10:14.921184
MEAN_MOTION    = 14.14814793
ECCENTRICITY   = .00021436
INCLINATION    = 70.9756
RA_OF_ASC_NODE = 353.9827
ARG_OF_PERICENTER = 262.4307
MEAN_ANOMALY   = 109.8251

EPHEMERIS_TYPE = 0
CLASSIFICATION_TYPE = U
NORAD_CAT_ID   = 31793
ELEMENT_SET_NO = 999
REV_AT_EPOCH   = 95315
BSTAR          = .17527155E-4
MEAN_MOTION_DOT = -.14E-6
MEAN_MOTION_DDOT = 0

CCSDS_OMM_VERS = 2.0
CREATION_DATE  = 
ORIGINATOR     = 

OBJECT_NAME    = KORONAS-FOTON
OBJECT_ID      = 2009-003A
CENTER_NAME    = EARTH
REF_FRAME      = TEME
TIME_SYSTEM    = UTC
MEAN_ELEMENT_THEORY = SGP/SGP4

EPOCH          = 2025-12-13T08:07:50.457216
MEAN_MOTION    = 15.41209881
ECCENTRICITY   = .00132674
INCLINATION    = 82.4315
RA_OF_ASC_NODE = 5.4854
ARG_OF_PERICENTER = 106.4813
MEAN_ANOMALY   = 253.7892

EPHEMERIS_TYPE = 0
CLASSIFICATION_TYPE = U
NORAD_CAT_ID   = 33504
ELEMENT_SET_NO = 999
REV_AT_EPOCH   = 93243
BSTAR          = .47286198E-3
MEAN_MOTION_DOT = .19746E-3
MEAN_MOTION_DDOT = 0

CCSDS_OMM_VERS = 2.0
CREATION_DATE  = 
ORIGINATOR     = 

OBJECT_NAME    = CZ-2C R/B
OBJECT_ID      = 2011-030B
CENTER_NAME    = EARTH
REF_FRAME      = TEME
TIME_SYSTEM    = UTC
MEAN_ELEMENT_THEORY = SGP/SGP4

EPOCH          = 2025-12-13T06:48:21.478752
MEAN_MOTION    = 14.80906482
ECCENTRICITY   = .00513225
INCLINATION    = 97.8411
RA_OF_ASC_NODE = 301.3781
ARG_OF_PERICENTER = 271.7748
MEAN_ANOMALY   = 224.8579

EPHEMERIS_TYPE = 0
CLASSIFICATION_TYPE = U
NORAD_CAT_ID   = 37731
ELEMENT_SET_NO = 999
REV_AT_EPOCH   = 77730
BSTAR          = .33823022E-3
MEAN_MOTION_DOT = .2619E-4
MEAN_MOTION_DDOT = 0

CCSDS_OMM_VERS = 2.0
CREATION_DATE  = 
ORIGINATOR     = 

OBJECT_NAME    = H-2A R/B
OBJECT_ID      = 2012-025E
CENTER_NAME    = EARTH
REF_FRAME      = TEME
TIME_SYSTEM    = UTC
MEAN_ELEMENT_THEORY = SGP/SGP4

EPOCH          = 2025-12-13T07:25:20.770752
MEAN_MOTION    = 14.94461942
ECCENTRICITY   = .0043656
INCLINATION    = 98.4603
RA_OF_ASC_NODE = 302.5835
ARG_OF_PERICENTER = 234.2245
MEAN_ANOMALY   = 125.4911

EPHEMERIS_TYPE = 0
CLASSIFICATION_TYPE = U
NORAD_CAT_ID   = 38341
ELEMENT_SET_NO = 999
REV_AT_EPOCH   = 73531
BSTAR          = .51469305E-3
MEAN_MOTION_DOT = .5589E-4
MEAN_MOTION_DDOT = 0

CCSDS_OMM_VERS = 2.0
CREATION_DATE  = 
ORIGINATOR     = 

OBJECT_NAME    = SHIJIAN-16 (SJ-16)
OBJECT_ID      = 2013-057A
CENTER_NAME    = EARTH
REF_FRAME      = TEME
TIME_SYSTEM    = UTC
MEAN_ELEMENT_THEORY = SGP/SGP4

EPOCH          = 2025-12-13T08:09:27.818784
MEAN_MOTION    = 14.91983496
ECCENTRICITY   = .00176126
INCLINATION    = 74.9736
RA_OF_ASC_NODE = 348.5195
ARG_OF_PERICENTER = 318.4415
MEAN_ANOMALY   = 41.5433

EPHEMERIS_TYPE = 0
CLASSIFICATION_TYPE = U
NORAD_CAT_ID   = 39358
ELEMENT_SET_NO = 999
REV_AT_EPOCH   = 65862
BSTAR          = .23030925E-4
MEAN_MOTION_DOT = .204E-5
MEAN_MOTION_DDOT = 0

