ALOS (DAICHI)           
1 28931U 06002A   25347.30825435  .00002450  00000+0  42165-3 0  9993
2 28931  98.1091 298.7916 0001167 116.2119 243.9207 14.69491627 60799
H-2A R/B                
1 28932U 06002B   25347.31390754  .00016698  00000+0  87443-3 0  9993
2 28932  98.2312 122.1091 0054529 174.3213 185.8648 15.14592359 81354
RESURS-DK 1             
1 29228U 06021A   25347.29342372  .00004378  00000+0  25921-3 0  9998
2 29228  69.9332 100.4076 0007154 258.5455 101.4907 15.12166735 74466
CZ-4B R/B               
1 29507U 06046C   25347.09917110  .00007136  00000+0  37118-3 0  9997
2 29507  97.5737  27.2363 0033289 205.1309 154.8305 15.15878420 46929
CZ-2C R/B               
1 31114U 07010B   25347.28232860  .00000274  00000+0  14504-3 0  9999
2 31114  98.3975  99.9059 0058998 184.4271 175.6393 14.20210468967453
COSMO-SKYMED 1          
1 31598U 07023A   25347.32335719  .00006181  00000+0  55938-3 0  9990
2 31598  97.8834 172.7261 0001268  89.6071 270.5295 14.95772291  1997
COSMOS 2428             
1 31792U 07029A   25347.30475207  .00000134  00000+0  97858-4 0  9997
2 31792  70.9368  24.6938 0003697  22.6373 337.4911 14.12890012951895
SL-16 R/B               
1 31793U 07029B   25347.29878381 -.00000014  00000+0  17527-4 0  9999
2 31793  70.9756 353.9827 0002143 262.4307 109.8251 14.14814793953151
KORONAS-FOTON           
1 33504U 09003A   25347.33877844  .00019746  00000+0  47286-3 0  9998
2 33504  82.4315   5.4854 0013267 106.4813 253.7892 15.41209881932434
CZ-2C R/B               
1 37731U 11030B   25347.28358193  .00002619  00000+0  33823-3 0  9995
2 37731  97.8411 301.3781 0051322 271.7748 224.8579 14.80906482777308
H-2A R/B                
1 38341U 12025E   25347.30926818  .00005589  00000+0  51469-3 0  9991
2 38341  98.4603 302.5835 0043656 234.2245 125.4911 14.94461942735319
SHIJIAN-16 (SJ-16)      
1 39358U 13057A   25347.33990531  .00000204  00000+0  23031-4 0  9996
2 39358  74.9736 348.5195 0017612 318.4415  41.5433 14.91983496658625
